[{"OBJECT_NAME":"SUPERVIEW NEO-2 03","OBJECT_ID":"2024-218B","EPOCH":"2026-03-09T13:29:09.257280","MEAN_MOTION":15.19718665,"ECCENTRICITY":0.0001687,"INCLINATION":97.4399,"RA_OF_ASC_NODE":77.3104,"ARG_OF_PERICENTER":89.5472,"MEAN_ANOMALY":270.5956,"EPHEMERIS_TYPE":0,"CLASSIFICATION_TYPE":"U","NORAD_CAT_ID":62079,"ELEMENT_SET_NO":999,"REV_AT_EPOCH":7131,"BSTAR":0.00018696,"MEAN_MOTION_DOT":3.926e-5,"MEAN_MOTION_DDOT":0},{"OBJECT_NAME":"SCORPION (RS89S)","OBJECT_ID":"2025-313AX","EPOCH":"2026-03-09T23:09:54.194112","MEAN_MOTION":15.2196038,"ECCENTRICITY":0.00105059,"INCLINATION":97.4004,"RA_OF_ASC_NODE":145.3058,"ARG_OF_PERICENTER":344.4953,"MEAN_ANOMALY":15.596,"EPHEMERIS_TYPE":0,"CLASSIFICATION_TYPE":"U","NORAD_CAT_ID":67293,"ELEMENT_SET_NO":999,"REV_AT_EPOCH":1086,"BSTAR":0.00025386995,"MEAN_MOTION_DOT":5.728e-5,"MEAN_MOTION_DDOT":0}]
